[{"OBJECT_NAME":"APRIZESAT 10","OBJECT_ID":"2014-033K","EPOCH":"2026-03-09T22:32:23.152704","MEAN_MOTION":14.70752531,"ECCENTRICITY":0.00780042,"INCLINATION":97.9479,"RA_OF_ASC_NODE":198.2119,"ARG_OF_PERICENTER":230.1102,"MEAN_ANOMALY":129.3229,"EPHEMERIS_TYPE":0,"CLASSIFICATION_TYPE":"U","NORAD_CAT_ID":40019,"ELEMENT_SET_NO":999,"REV_AT_EPOCH":62766,"BSTAR":0.00017424571,"MEAN_MOTION_DOT":1.061e-5,"MEAN_MOTION_DDOT":0},{"OBJECT_NAME":"YAOGAN-33 04","OBJECT_ID":"2023-149A","EPOCH":"2026-03-10T00:08:02.588928","MEAN_MOTION":14.58624687,"ECCENTRICITY":0.00010375,"INCLINATION":98.1869,"RA_OF_ASC_NODE":19.7732,"ARG_OF_PERICENTER":50.2829,"MEAN_ANOMALY":309.8461,"EPHEMERIS_TYPE":0,"CLASSIFICATION_TYPE":"U","NORAD_CAT_ID":57958,"ELEMENT_SET_NO":999,"REV_AT_EPOCH":13054,"BSTAR":0.00018482829,"MEAN_MOTION_DOT":8.15e-6,"MEAN_MOTION_DDOT":0}]
